{"type": "FeatureCollection", "features": [ {"type": "Feature", "properties": {"norad_id": 61186, "name": "BEIDOU-3 M25 (C47)", "group": "beidou", "lat": -52.627783579123324, "lon": -119.8766246929193, "alt_km": 21519.230966690702, "timestamp": "2025-12-21T14:40:48.182274+00:00", "meta": {"OBJECT_NAME": "BEIDOU-3 M25 (C47)", "OBJECT_ID": "2024-168B", "EPOCH": "2025-12-20T22:07:53.377248", "MEAN_MOTION": 1.86230245, "ECCENTRICITY": 0.0005454, "INCLINATION": 54.6348, "RA_OF_ASC_NODE": 308.4372, "ARG_OF_PERICENTER": 299.6064, "MEAN_ANOMALY": 241.0883, "EPHEMERIS_TYPE": 0, "CLASSIFICATION_TYPE": "U", "NORAD_CAT_ID": 61186, "ELEMENT_SET_NO": 999, "REV_AT_EPOCH": 846, "BSTAR": 0, "MEAN_MOTION_DOT": -6.6e-07, "MEAN_MOTION_DDOT": 0}, "tle": {"line1": "1 61186U 24168B   25354.92214557 -.00000066  00000+0  00000+0 0  9998", "line2": "2 61186  54.6348 308.4372 0005454 299.6064 241.0883  1.86230245  8460"}}, "geometry": {"type": "Point", "coordinates": [-119.8766246929193, -52.627783579123324]}}, {"type": "Feature", "properties": {"norad_id": 61187, "name": "BEIDOU-3 M27 (C49)", "group": "beidou", "lat": 43.742563835108804, "lon": -8.849837786129731, "alt_km": 21521.359719835018, "timestamp": "2025-12-21T14:40:48.182285+00:00", "meta": {"OBJECT_NAME": "BEIDOU-3 M27 (C49)", "OBJECT_ID": "2024-168C", "EPOCH": "2025-12-21T06:06:47.585952", "MEAN_MOTION": 1.86230383, "ECCENTRICITY": 0.00025343, "INCLINATION": 54.63, "RA_OF_ASC_NODE": 308.4093, "ARG_OF_PERICENTER": 340.0926, "MEAN_ANOMALY": 198.5211, "EPHEMERIS_TYPE": 0, "CLASSIFICATION_TYPE": "U", "NORAD_CAT_ID": 61187, "ELEMENT_SET_NO": 999, "REV_AT_EPOCH": 594, "BSTAR": 0, "MEAN_MOTION_DOT": -6.4e-07, "MEAN_MOTION_DDOT": 0}, "tle": {"line1": "1 61187U 24168C   25355.25471743 -.00000064  00000+0  00000+0 0  9996", "line2": "2 61187  54.6300 308.4093 0002534 340.0926 198.5211  1.86230383  5947"}}, "geometry": {"type": "Point", "coordinates": [-8.849837786129731, 43.742563835108804]}}]}